{
"type": "FeatureCollection",
"name": "precincts",
"crs": { "type": "name", "properties": { "name": "urn:ogc:def:crs:OGC:1.3:CRS84" } },
"features": [
{ "type": "Feature", "properties": { "name": "Watertown 1", "city_town": "Watertown", "ward": "-", "precinct": "1", "city_town_abbrev": "Watertown", "State_Rep": "Twenty-Ninth Middlesex", "State_Senate": "Suffolk and Middlesex", "US_House": "5", "Gov_Council": "Third", "district": "A" }, "geometry": { "type": "MultiPolygon", "coordinates": [ [ [ [ -71.143630000289676, 42.375276999915194 ], [ -71.143924999648803, 42.374074000811966 ], [ -71.139992000030389, 42.37356899921339 ], [ -71.140450000026746, 42.370359000417956 ], [ -71.142558999641167, 42.366903999584103 ], [ -71.144269000387837, 42.366453999886993 ], [ -71.143667000475205, 42.36508100069922 ], [ -71.144491999750883, 42.364822000121883 ], [ -71.144955999869978, 42.364436000167572 ], [ -71.146135000225016, 42.362689000031416 ], [ -71.147807999940682, 42.361305999379574 ], [ -71.148642000066758, 42.361068999563138 ], [ -71.152476000066343, 42.360677999443055 ], [ -71.15524599936272, 42.359895000471091 ], [ -71.159277999809021, 42.35990199989493 ], [ -71.160517999512933, 42.359497000241014 ], [ -71.16228499918121, 42.358563999704174 ], [ -71.163423000209519, 42.35846500035391 ], [ -71.16457399990783, 42.358804999670305 ], [ -71.165691000409041, 42.359706999701622 ], [ -71.166158000710155, 42.359906999669036 ], [ -71.168039999296738, 42.36014800054614 ], [ -71.166386000406831, 42.361886999870485 ], [ -71.166599999644845, 42.362009999721352 ], [ -71.171445000425521, 42.362952999971093 ], [ -71.17137399988556, 42.364240000079477 ], [ -71.167009999588302, 42.363860000094405 ], [ -71.166047999438078, 42.365478999999809 ], [ -71.161919999817272, 42.365555999264906 ], [ -71.161879000325456, 42.366171000586306 ], [ -71.161242000431827, 42.366174000390089 ], [ -71.159850999619167, 42.366839999149718 ], [ -71.159210999800749, 42.370486000188272 ], [ -71.15656000039597, 42.372140000702679 ], [ -71.152917000805459, 42.373629999428786 ], [ -71.150301000585159, 42.37448300010562 ], [ -71.150239000581607, 42.374376999564845 ], [ -71.145936999851514, 42.375195000083352 ], [ -71.143630000289676, 42.375276999915194 ] ] ] ] } },
{ "type": "Feature", "properties": { "name": "Watertown 10", "city_town": "Watertown", "ward": "-", "precinct": "10", "city_town_abbrev": "Watertown", "State_Rep": "Tenth Middlesex", "State_Senate": "Suffolk and Middlesex", "US_House": "5", "Gov_Council": "Third", "district": "D" }, "geometry": { "type": "MultiPolygon", "coordinates": [ [ [ [ -71.195574999741169, 42.370407000044189 ], [ -71.195851000070533, 42.369564000314924 ], [ -71.195211999544554, 42.369411000307075 ], [ -71.195802000144198, 42.368150000076433 ], [ -71.194868999555112, 42.367936999593667 ], [ -71.195205999931687, 42.367734000725655 ], [ -71.19542200012161, 42.367824999958508 ], [ -71.195853999572293, 42.367694000518028 ], [ -71.196485000596809, 42.367023999857636 ], [ -71.197080000099078, 42.366938999915455 ], [ -71.197744000022368, 42.36734000036963 ], [ -71.198322999109664, 42.367402000479366 ], [ -71.200515000484444, 42.36627199992418 ], [ -71.202028999324043, 42.365820000166572 ], [ -71.202865999992412, 42.365687000644904 ], [ -71.204991999546692, 42.365779000228805 ], [ -71.206320999298811, 42.364612999943517 ], [ -71.207220999875076, 42.364137000360273 ], [ -71.207705000016645, 42.364129999199292 ], [ -71.208811999528081, 42.364577999583105 ], [ -71.209942000355412, 42.364132000059151 ], [ -71.211258999541471, 42.364284999317974 ], [ -71.213729999994143, 42.365123999354836 ], [ -71.214509999687294, 42.365682000062741 ], [ -71.21553399988187, 42.365608000597341 ], [ -71.216444999739835, 42.365912999632769 ], [ -71.217060999995425, 42.366568999958794 ], [ -71.208515000531847, 42.373849999661893 ], [ -71.203564000709193, 42.373373999312193 ], [ -71.201914000156265, 42.373050999991236 ], [ -71.199281999840267, 42.371943000166574 ], [ -71.195332000550948, 42.37101100036066 ], [ -71.195574999741169, 42.370407000044189 ] ] ] ] } },
{ "type": "Feature", "properties": { "name": "Watertown 11", "city_town": "Watertown", "ward": "-", "precinct": "11", "city_town_abbrev": "Watertown", "State_Rep": "Tenth Middlesex", "State_Senate": "Suffolk and Middlesex", "US_House": "5", "Gov_Council": "Third", "district": "D" }, "geometry": { "type": "MultiPolygon", "coordinates": [ [ [ [ -71.193415999585426, 42.375297000098691 ], [ -71.193582999654893, 42.374029000320022 ], [ -71.195332000550948, 42.37101100036066 ], [ -71.199281999840267, 42.371943000166574 ], [ -71.201208000155603, 42.372830999625897 ], [ -71.202739999795511, 42.373246000156826 ], [ -71.208515000531847, 42.373849999661893 ], [ -71.200696000184479, 42.380484000234354 ], [ -71.201137000173915, 42.379510999941488 ], [ -71.199530999121436, 42.379075000109154 ], [ -71.198839000515889, 42.379563999890578 ], [ -71.196055000449448, 42.378570000168637 ], [ -71.196754000632026, 42.377145999771386 ], [ -71.196036000698186, 42.376906999809655 ], [ -71.196403000199325, 42.376319999286004 ], [ -71.193339000196318, 42.375451999696274 ], [ -71.193415999585426, 42.375297000098691 ] ] ] ] } },
{ "type": "Feature", "properties": { "name": "Watertown 12", "city_town": "Watertown", "ward": "-", "precinct": "12", "city_town_abbrev": "Watertown", "State_Rep": "Tenth Middlesex", "State_Senate": "Suffolk and Middlesex", "US_House": "5", "Gov_Council": "Third", "district": "D" }, "geometry": { "type": "MultiPolygon", "coordinates": [ [ [ [ -71.189248000046561, 42.38072499923102 ], [ -71.190002000497884, 42.380495999929508 ], [ -71.190502999421284, 42.379866999711467 ], [ -71.189882999366205, 42.379202000038788 ], [ -71.19117600057055, 42.376569000456087 ], [ -71.192150999775023, 42.375655999297301 ], [ -71.192400000486657, 42.375213999920724 ], [ -71.196403000199325, 42.376319999286004 ], [ -71.196036000698186, 42.376906999809655 ], [ -71.196754000632026, 42.377145999771386 ], [ -71.196055000449448, 42.378570000168637 ], [ -71.198839000515889, 42.379563999890578 ], [ -71.199530999121436, 42.379075000109154 ], [ -71.201137000173915, 42.379510999941488 ], [ -71.200696000184479, 42.380484000234354 ], [ -71.194176999870507, 42.386030999484255 ], [ -71.189248000046561, 42.38072499923102 ] ] ] ] } },
{ "type": "Feature", "properties": { "name": "Watertown 2", "city_town": "Watertown", "ward": "-", "precinct": "2", "city_town_abbrev": "Watertown", "State_Rep": "Twenty-Ninth Middlesex", "State_Senate": "Suffolk and Middlesex", "US_House": "5", "Gov_Council": "Third", "district": "A" }, "geometry": { "type": "MultiPolygon", "coordinates": [ [ [ [ -71.159185000101999, 42.370352999924805 ], [ -71.159850999619167, 42.366839999149718 ], [ -71.161242000431827, 42.366174000390089 ], [ -71.161879000325456, 42.366171000586306 ], [ -71.161987000117549, 42.365523000002916 ], [ -71.168712000051045, 42.365509000392372 ], [ -71.169471000050777, 42.365365999746203 ], [ -71.170768999775035, 42.366029000318562 ], [ -71.172489000183418, 42.367440999898996 ], [ -71.172128000734546, 42.367668999923879 ], [ -71.171573000492302, 42.367494999685306 ], [ -71.170994999939936, 42.367660999529434 ], [ -71.171651000410961, 42.369948999937094 ], [ -71.171466999766665, 42.369998999330178 ], [ -71.166737000193137, 42.370018000809239 ], [ -71.163978999846677, 42.370878999701382 ], [ -71.160954999795692, 42.370397999742607 ], [ -71.160010000479048, 42.370336999952478 ], [ -71.159210999800749, 42.370486000188272 ], [ -71.159185000101999, 42.370352999924805 ] ] ] ] } },
{ "type": "Feature", "properties": { "name": "Watertown 3", "city_town": "Watertown", "ward": "-", "precinct": "3", "city_town_abbrev": "Watertown", "State_Rep": "Twenty-Ninth Middlesex", "State_Senate": "Suffolk and Middlesex", "US_House": "5", "Gov_Council": "Third", "district": "A" }, "geometry": { "type": "MultiPolygon", "coordinates": [ [ [ [ -71.163274000342099, 42.376798000388824 ], [ -71.160774000746912, 42.376628000770246 ], [ -71.15860399973387, 42.376135999866804 ], [ -71.155414000666553, 42.375156999841238 ], [ -71.150378000499046, 42.374613000025086 ], [ -71.150301000585159, 42.37448300010562 ], [ -71.152917000805459, 42.373629999428786 ], [ -71.15656000039597, 42.372140000702679 ], [ -71.158804000079996, 42.3706670002042 ], [ -71.159514999691353, 42.370398000159796 ], [ -71.160954999795692, 42.370397999742607 ], [ -71.163751000389126, 42.370881999397525 ], [ -71.165025000159289, 42.370613000034531 ], [ -71.164000999899315, 42.374456999747864 ], [ -71.164483000490293, 42.37688599997081 ], [ -71.163274000342099, 42.376798000388824 ] ] ] ] } },
{ "type": "Feature", "properties": { "name": "Watertown 4", "city_town": "Watertown", "ward": "-", "precinct": "4", "city_town_abbrev": "Watertown", "State_Rep": "Twenty-Ninth Middlesex", "State_Senate": "Suffolk and Middlesex", "US_House": "5", "Gov_Council": "Third", "district": "B" }, "geometry": { "type": "MultiPolygon", "coordinates": [ [ [ [ -71.164455000316408, 42.376777999724979 ], [ -71.164000999899315, 42.374456999747864 ], [ -71.165025000159289, 42.370613000034531 ], [ -71.166737000193137, 42.370018000809239 ], [ -71.170958000017194, 42.370062999501108 ], [ -71.171651000410961, 42.369948999937094 ], [ -71.170994999939936, 42.367660999529434 ], [ -71.171573000492302, 42.367494999685306 ], [ -71.172128000734546, 42.367668999923879 ], [ -71.172489000183418, 42.367440999898996 ], [ -71.173380999783745, 42.368165999213879 ], [ -71.175221000465811, 42.367415000244357 ], [ -71.175049000067517, 42.36719699970331 ], [ -71.177146000086324, 42.36621400033134 ], [ -71.178666000042497, 42.368039999688513 ], [ -71.179831000330211, 42.367466999719653 ], [ -71.181255999340237, 42.368569000089018 ], [ -71.179279000459388, 42.370327000009837 ], [ -71.177714000190207, 42.374578000272002 ], [ -71.175907000678876, 42.3787460004446 ], [ -71.175460999760432, 42.379413000023355 ], [ -71.171229000554035, 42.378279000342452 ], [ -71.170802999742406, 42.378318999693263 ], [ -71.16954900034294, 42.377685999813906 ], [ -71.164483000490293, 42.37688599997081 ], [ -71.164455000316408, 42.376777999724979 ] ] ] ] } },
{ "type": "Feature", "properties": { "name": "Watertown 5", "city_town": "Watertown", "ward": "-", "precinct": "5", "city_town_abbrev": "Watertown", "State_Rep": "Twenty-Ninth Middlesex", "State_Senate": "Suffolk and Middlesex", "US_House": "5", "Gov_Council": "Third", "district": "B" }, "geometry": { "type": "MultiPolygon", "coordinates": [ [ [ [ -71.17222799927039, 42.367208000420725 ], [ -71.170768999775035, 42.366029000318562 ], [ -71.169471000050777, 42.365365999746203 ], [ -71.168712000051045, 42.365509000392372 ], [ -71.166047999438078, 42.365478999999809 ], [ -71.167009999588302, 42.363860000094405 ], [ -71.17137399988556, 42.364240000079477 ], [ -71.171445000425521, 42.362952999971093 ], [ -71.168086000390275, 42.362372000657444 ], [ -71.172081000436762, 42.360564999799216 ], [ -71.176151000287291, 42.359955000044238 ], [ -71.177335000343007, 42.360041999496723 ], [ -71.179599000104332, 42.360679999256483 ], [ -71.181879000034499, 42.361828999798433 ], [ -71.18098699930971, 42.363057999735616 ], [ -71.180671999020703, 42.362947000159664 ], [ -71.179793999450425, 42.36440800022347 ], [ -71.182889999949992, 42.364968999872509 ], [ -71.180171000473962, 42.364918000221934 ], [ -71.181115999980875, 42.366672000255271 ], [ -71.179831000330211, 42.367466999719653 ], [ -71.178666000042497, 42.368039999688513 ], [ -71.177146000086324, 42.36621400033134 ], [ -71.175049000067517, 42.36719699970331 ], [ -71.175221000465811, 42.367415000244357 ], [ -71.173380999783745, 42.368165999213879 ], [ -71.17222799927039, 42.367208000420725 ] ] ] ] } },
{ "type": "Feature", "properties": { "name": "Watertown 6", "city_town": "Watertown", "ward": "-", "precinct": "6", "city_town_abbrev": "Watertown", "State_Rep": "Twenty-Ninth Middlesex", "State_Senate": "Suffolk and Middlesex", "US_House": "5", "Gov_Council": "Third", "district": "B" }, "geometry": { "type": "MultiPolygon", "coordinates": [ [ [ [ -71.18005400003625, 42.367339999701471 ], [ -71.181115999980875, 42.366672000255271 ], [ -71.180171000473962, 42.364918000221934 ], [ -71.182889999949992, 42.364968999872509 ], [ -71.179793999450425, 42.36440800022347 ], [ -71.180671999020703, 42.362947000159664 ], [ -71.18098699930971, 42.363057999735616 ], [ -71.181879000034499, 42.361828999798433 ], [ -71.179599000104332, 42.360679999256483 ], [ -71.177335000343007, 42.360041999496723 ], [ -71.175813000731765, 42.359975999428727 ], [ -71.172081000436762, 42.360564999799216 ], [ -71.168086000390275, 42.362372000657444 ], [ -71.166938000380839, 42.362144999909191 ], [ -71.166386000406831, 42.361886999870485 ], [ -71.168039999296738, 42.36014800054614 ], [ -71.169380999314129, 42.360135999448651 ], [ -71.172753999852432, 42.359331000209508 ], [ -71.175271999851674, 42.359272000715826 ], [ -71.178239999747746, 42.359565999447263 ], [ -71.182126000030365, 42.360681000151132 ], [ -71.183679999460637, 42.358828999834856 ], [ -71.196297999903919, 42.36180200040338 ], [ -71.192215000620266, 42.365423999544454 ], [ -71.191105999392562, 42.365103000656774 ], [ -71.189502000848975, 42.365384999708382 ], [ -71.187283999155071, 42.364967000401144 ], [ -71.185551000079172, 42.364838999781931 ], [ -71.185278000127497, 42.36499499963795 ], [ -71.185608999191714, 42.36526999973146 ], [ -71.185485999851153, 42.365752000118988 ], [ -71.18520000028937, 42.365783000411696 ], [ -71.1848259992572, 42.365495999410903 ], [ -71.181255999340237, 42.368569000089018 ], [ -71.179831000330211, 42.367466999719653 ], [ -71.18005400003625, 42.367339999701471 ] ] ] ] } },
{ "type": "Feature", "properties": { "name": "Watertown 7", "city_town": "Watertown", "ward": "-", "precinct": "7", "city_town_abbrev": "Watertown", "State_Rep": "Twenty-Ninth Middlesex", "State_Senate": "Suffolk and Middlesex", "US_House": "5", "Gov_Council": "Third", "district": "C" }, "geometry": { "type": "MultiPolygon", "coordinates": [ [ [ [ -71.189106999984048, 42.38071199996638 ], [ -71.186778999245476, 42.38036300009022 ], [ -71.185165000344441, 42.380440999900259 ], [ -71.179495000001864, 42.380195000642239 ], [ -71.175460999760432, 42.379413000023355 ], [ -71.175907000678876, 42.3787460004446 ], [ -71.177714000190207, 42.374578000272002 ], [ -71.178436000437003, 42.37249800004458 ], [ -71.178799999378683, 42.372594999679656 ], [ -71.183481000045717, 42.375763000102211 ], [ -71.184884999484908, 42.376351000158671 ], [ -71.185123999373786, 42.37642300005291 ], [ -71.185409999679976, 42.375762000282194 ], [ -71.188408999955513, 42.376484999958755 ], [ -71.188593999398705, 42.376087999850242 ], [ -71.190285000064662, 42.376509000638052 ], [ -71.189604999447312, 42.377872999967991 ], [ -71.190253999684316, 42.3784729999985 ], [ -71.189882999366205, 42.379202000038788 ], [ -71.190502999421284, 42.379866999711467 ], [ -71.190002000497884, 42.380495999929508 ], [ -71.189106999984048, 42.38071199996638 ] ] ] ] } },
{ "type": "Feature", "properties": { "name": "Watertown 8", "city_town": "Watertown", "ward": "-", "precinct": "8", "city_town_abbrev": "Watertown", "State_Rep": "Twenty-Ninth Middlesex", "State_Senate": "Suffolk and Middlesex", "US_House": "5", "Gov_Council": "Third", "district": "C" }, "geometry": { "type": "MultiPolygon", "coordinates": [ [ [ [ -71.178508000081848, 42.372306000060497 ], [ -71.179279000459388, 42.370327000009837 ], [ -71.181255999340237, 42.368569000089018 ], [ -71.182558000164349, 42.369498999647803 ], [ -71.184284999433302, 42.367976999410544 ], [ -71.187363999399722, 42.369984999814839 ], [ -71.186212999976149, 42.371085000414048 ], [ -71.187584000082737, 42.371947000680315 ], [ -71.187946999901087, 42.371364999435812 ], [ -71.18945500029524, 42.372447999781336 ], [ -71.188939999691428, 42.373093999940224 ], [ -71.189735000102601, 42.373693999580091 ], [ -71.19059699896539, 42.372657999636665 ], [ -71.191391000393139, 42.369873999648014 ], [ -71.193540000093591, 42.370109000205922 ], [ -71.195332000550948, 42.37101100036066 ], [ -71.193582999654893, 42.374029000320022 ], [ -71.193339000196318, 42.375451999696274 ], [ -71.192400000486657, 42.375213999920724 ], [ -71.192150999775023, 42.375655999297301 ], [ -71.19117600057055, 42.376569000456087 ], [ -71.190253999684316, 42.3784729999985 ], [ -71.189604999447312, 42.377872999967991 ], [ -71.190285000064662, 42.376509000638052 ], [ -71.188593999398705, 42.376087999850242 ], [ -71.188408999955513, 42.376484999958755 ], [ -71.185409999679976, 42.375762000282194 ], [ -71.185123999373786, 42.37642300005291 ], [ -71.184602000132415, 42.37625500008582 ], [ -71.182975999542435, 42.375448000128515 ], [ -71.178799999378683, 42.372594999679656 ], [ -71.178436000437003, 42.37249800004458 ], [ -71.178508000081848, 42.372306000060497 ] ] ] ] } },
{ "type": "Feature", "properties": { "name": "Watertown 9", "city_town": "Watertown", "ward": "-", "precinct": "9", "city_town_abbrev": "Watertown", "State_Rep": "Tenth Middlesex", "State_Senate": "Suffolk and Middlesex", "US_House": "5", "Gov_Council": "Third", "district": "C" }, "geometry": { "type": "MultiPolygon", "coordinates": [ [ [ [ -71.181669999396561, 42.368226999279123 ], [ -71.1848259992572, 42.365495999410903 ], [ -71.18520000028937, 42.365783000411696 ], [ -71.185485999851153, 42.365752000118988 ], [ -71.185608999191714, 42.36526999973146 ], [ -71.185278000127497, 42.36499499963795 ], [ -71.185551000079172, 42.364838999781931 ], [ -71.187283999155071, 42.364967000401144 ], [ -71.189502000848975, 42.365384999708382 ], [ -71.190813999294676, 42.365116000322345 ], [ -71.191396999338949, 42.365129999846225 ], [ -71.192215000620266, 42.365423999544454 ], [ -71.194908999658296, 42.366993000145087 ], [ -71.195205999931687, 42.367734000725655 ], [ -71.194868999555112, 42.367936999593667 ], [ -71.195802000144198, 42.368150000076433 ], [ -71.195211999544554, 42.369411000307075 ], [ -71.195851000070533, 42.369564000314924 ], [ -71.195332000550948, 42.37101100036066 ], [ -71.193540000093591, 42.370109000205922 ], [ -71.191391000393139, 42.369873999648014 ], [ -71.19059699896539, 42.372657999636665 ], [ -71.189735000102601, 42.373693999580091 ], [ -71.188939999691428, 42.373093999940224 ], [ -71.18945500029524, 42.372447999781336 ], [ -71.187946999901087, 42.371364999435812 ], [ -71.187584000082737, 42.371947000680315 ], [ -71.186212999976149, 42.371085000414048 ], [ -71.187363999399722, 42.369984999814839 ], [ -71.184284999433302, 42.367976999410544 ], [ -71.182558000164349, 42.369498999647803 ], [ -71.181255999340237, 42.368569000089018 ], [ -71.181669999396561, 42.368226999279123 ] ] ] ] } }
]
}
